[
    {
        "Altitude(m)": 610405.2736179499,
        "Argument of Periapsis(deg)": 0.0,
        "Eccentricity": 0.0,
        "Inclination(deg)": 60.0,
        "Latitude(deg)": 52.111135254038,
        "Longitude(deg)": -82.5225752449165,
        "Mean Anomaly(deg)": 114.5455,
        "RAAN(deg)": 245.0,
        "Satellite Name": "Test1 1085",
        "Satellite Number": 1085,
        "Semi-Major Axis(m)": 6980739.136638005,
        "Time(s)": 0
    },
    {
        "Altitude(m)": 610321.8464202248,
        "Argument of Periapsis(deg)": 0.00010418945913296404,
        "Eccentricity": 0.0,
        "Inclination(deg)": 60.0,
        "Latitude(deg)": 51.745850160567336,
        "Longitude(deg)": -81.7536838171578,
        "Mean Anomaly(deg)": -244.83439385453818,
        "RAAN(deg)": 244.99957995086027,
        "Satellite Name": "Test1 1085",
        "Satellite Number": 1085,
        "Semi-Major Axis(m)": 6980739.136638005,
        "Time(s)": 10
    }
]